FENGYUN 3A              
1 32958U 08026A   24024.84103598  .00000346  00000+0  18612-3 0  9996
2 32958  98.5866 336.2837 0009512 124.8340 235.3732 14.19002194811378
FENGYUN 2E              
1 33463U 08066A   24024.85664964 -.00000209  00000+0  00000+0 0  9999
2 33463   7.2216  61.3797 0001444 278.5780 178.8527  1.00274073 55330
NOAA 19                 
1 33591U 09005A   24025.12726939  .00000346  00000+0  21022-3 0  9999
2 33591  99.0700  79.2727 0013437 341.9755  18.0939 14.12913521771288
GOES 14                 
1 35491U 09033A   24024.87951420 -.00000065  00000+0  00000+0 0  9995
2 35491   0.0669 223.6253 0000767 114.6754 353.4565  1.00272989 53340
DMSP 5D-3 F18 (USA 210) 
1 35951U 09057A   24025.12959711  .00000490  00000+0  28117-3 0  9996
2 35951  98.7969   2.5609 0010432 212.8870 147.1655 14.13976491736003
EWS-G2 (GOES 15)        
1 36411U 10008A   24024.91336604  .00000034  00000+0  00000+0 0  9993
2 36411   0.0643 256.8256 0005828  13.5939 243.8384  1.00278144 50876
COMS 1                  
1 36744U 10032A   24024.99821730 -.00000346  00000+0  00000+0 0  9993
2 36744   2.5646  86.6494 0001028 213.9136 310.7420  1.00271977 49882
FENGYUN 3B              
1 37214U 10059A   24025.25830069  .00000228  00000+0  14247-3 0  9990
2 37214  99.0704  51.2388 0022859 137.6232 285.6254 14.14435287683902
SUOMI NPP               
1 37849U 11061A   24025.11352493  .00000195  00000+0  11322-3 0  9997
2 37849  98.7280 325.2755 0001069  61.5228 298.6055 14.19547644634425
FENGYUN 2F              
1 38049U 12002A   24025.06661719 -.00000360  00000+0  00000+0 0  9996
2 38049   5.2356  74.5613 0001443  32.4244 153.0007  1.00268692 44125
METEOSAT-10 (MSG-3)     
1 38552U 12035B   24025.11595910 -.00000006  00000+0  00000+0 0  9993
2 38552   2.6456  59.6355 0001268 238.9943 227.1483  1.00275924 42458
METOP-B                 
1 38771U 12049A   24025.15950349  .00000272  00000+0  14440-3 0  9997
2 38771  98.6499  85.4762 0001706  93.7932 266.3440 14.21459884589083
FENGYUN 3C              
1 39260U 13052A   24025.24742176  .00000235  00000+0  13964-3 0  9992
2 39260  98.4271  32.5036 0011580  27.8132 332.3660 14.16137861534957
METEOR-M 2              
1 40069U 14037A   24025.16937999  .00000299  00000+0  15751-3 0  9991
2 40069  98.4305  25.8984 0006766  62.4143 297.7721 14.20878672495177
HIMAWARI-8              
1 40267U 14060A   24024.98521683 -.00000275  00000+0  00000+0 0  9997
2 40267   0.0534 243.3427 0001082  67.0384 308.7145  1.00271684 34090
FENGYUN 2G              
1 40367U 14090A   24024.93730024 -.00000304  00000+0  00000+0 0  9990
2 40367   3.4206  83.2105 0000587   3.2566 114.4148  1.00267226 33238
METEOSAT-11 (MSG-4)     
1 40732U 15034A   24025.11769955  .00000062  00000+0  00000+0 0  9991
2 40732   1.0441  64.0509 0002482 201.4791 269.9950  1.00268799 31244
ELEKTRO-L 2             
1 41105U 15074A   24025.04138058 -.00000119  00000+0  00000+0 0  9990
2 41105   4.4734  81.2103 0003613 198.2346 204.8152  1.00271537 29757
HIMAWARI-9              
1 41836U 16064A   24024.91646729 -.00000275  00000+0  00000+0 0  9998
2 41836   0.0178  76.6902 0000900 225.0845 292.6565  1.00269893 26433
GOES 16                 
1 41866U 16071A   24025.10099118 -.00000247  00000+0  00000+0 0  9994
2 41866   0.0764 254.6724 0001294  74.7227 115.6376  1.00271297 26331
FENGYUN 4A              
1 41882U 16077A   24025.06299209 -.00000329  00000+0  00000+0 0  9997
2 41882   0.0951  66.7933 0005134 336.9867 207.3217  1.00270685 26211
CYGFM05                 
1 41884U 16078A   24024.56381120  .00010626  00000+0  43056-3 0  9990
2 41884  34.9543 134.3592 0012489 319.0321  40.9454 15.23805640394089
CYGFM04                 
1 41885U 16078B   24022.53867672  .00011341  00000+0  44922-3 0  9995
2 41885  34.9460 132.5007 0011243 325.2234  34.7744 15.24565505393916
CYGFM02                 
1 41886U 16078C   24024.54956163  .00010694  00000+0  42260-3 0  9996
2 41886  34.9560 122.2890 0011667 332.2592  27.7499 15.24650580394210
CYGFM01                 
1 41887U 16078D   24024.71608726  .00010849  00000+0  44291-3 0  9993
2 41887  34.9503 136.8849 0013024 318.3565  41.6157 15.23543937393948
CYGFM08                 
1 41888U 16078E   24024.55421883  .00010540  00000+0  42189-3 0  9995
2 41888  34.9480 127.3238 0011951 332.7543  27.2543 15.24222013394112
CYGFM07                 
1 41890U 16078G   24022.53795711  .00011298  00000+0  44636-3 0  9998
2 41890  34.9485 132.0192 0010803 322.6806  37.3158 15.24656939393916
CYGFM03                 
1 41891U 16078H   24024.53053975  .00010682  00000+0  42237-3 0  9991
2 41891  34.9536 120.5004 0009886 334.0813  25.9406 15.24648144394203
FENGYUN 3D              
1 43010U 17072A   24025.14181281  .00000221  00000+0  12667-3 0  9993
2 43010  98.8924 339.1093 0002276  50.8079 309.3298 14.19273215320985
NOAA 20                 
1 43013U 17073A   24025.07796371  .00000193  00000+0  11235-3 0  9999
2 43013  98.7359 325.2029 0000862 117.6038 242.5225 14.19537544320458
GOES 17                 
1 43226U 18022A   24024.88021038 -.00000090  00000+0  00000+0 0  9990
2 43226   0.0296 160.9966 0001914 120.4233  54.4496  1.00271842 21654
FENGYUN 2H              
1 43491U 18050A   24025.13171022 -.00000130  00000+0  00000+0 0  9998
2 43491   0.7699  88.3078 0000470 335.2191 187.2136  1.00271602 20743
METOP-C                 
1 43689U 18087A   24025.12642575  .00000278  00000+0  14716-3 0  9997
2 43689  98.7018  86.3337 0003455 124.0300 236.1205 14.21501004270659
GEO-KOMPSAT-2A          
1 43823U 18100A   24025.00188392 -.00000343  00000+0  00000+0 0  9993
2 43823   0.0177 114.5817 0000589 268.3883 229.7482  1.00271102 18898
METEOR-M2 2             
1 44387U 19038A   24025.16563080  .00000103  00000+0  64722-4 0  9997
2 44387  98.8081 353.9736 0001947  48.1129 312.0215 14.23845578236893
ARKTIKA-M 1             
1 47719U 21016A   24022.69931445  .00000138  00000+0  00000+0 0  9999
2 47719  63.1424 168.3284 6901516 269.0681  18.1103  2.00601567 21208
FENGYUN 3E              
1 49008U 21062A   24025.15548185  .00000064  00000+0  50890-4 0  9997
2 49008  98.7296  28.3870 0002624  88.0534 272.0942 14.19724661132557
GOES 18                 
1 51850U 22021A   24025.01701421  .00000097  00000+0  00000+0 0  9999
2 51850   0.0075 300.3977 0000782 317.0014  95.5235  1.00271849  7047
NOAA 21 (JPSS-2)        
1 54234U 22150A   24024.88311673  .00000224  00000+0  12716-3 0  9994
2 54234  98.7394 324.5711 0001199 104.7142 255.4167 14.19565303 62502
METEOSAT-12 (MTG-I1)    
1 54743U 22170C   24024.01507789 -.00000030  00000+0  00000+0 0  9996
2 54743   0.3900 356.6471 0001839 276.5793 211.4766  1.00272576  4202
TIANMU-1 03             
1 55973U 23039A   24025.14004777  .00010782  00000+0  46197-3 0  9996
2 55973  97.4488 176.4923 0011807 253.6061 106.3878 15.22884728 46913
TIANMU-1 04             
1 55974U 23039B   24025.12182322  .00010409  00000+0  44631-3 0  9995
2 55974  97.4406 176.1902 0008784 253.4506 106.5766 15.22898089 46902
TIANMU-1 05             
1 55975U 23039C   24025.10733679  .00010999  00000+0  47206-3 0  9996
2 55975  97.4455 176.4056 0004937 243.9371 116.1358 15.22874043 46896
TIANMU-1 06             
1 55976U 23039D   24025.15726953  .00011347  00000+0  48692-3 0  9997
2 55976  97.4470 176.5447 0004379 245.2743 114.8038 15.22873268 46907
METEOR-M2 3             
1 57166U 23091A   24025.13165247  .00000074  00000+0  51554-4 0  9996
2 57166  98.7356  80.9524 0004080 173.0228 187.1008 14.23867700 30127
TIANMU-1 07             
1 57399U 23101A   24025.14874158  .00006487  00000+0  34912-3 0  9997
2 57399  97.3855  86.4073 0004185 349.7101  10.4045 15.15169112 28605
TIANMU-1 08             
1 57400U 23101B   24025.11717539  .00007300  00000+0  39242-3 0  9992
2 57400  97.3843  86.2720 0006703 344.3308  15.7716 15.15154409 28594
TIANMU-1 09             
1 57401U 23101C   24025.16457662  .00007176  00000+0  38566-3 0  9995
2 57401  97.3800  86.2487 0006814 338.6719  21.4228 15.15166929 28607
TIANMU-1 10             
1 57402U 23101D   24025.13021551  .00006680  00000+0  35845-3 0  9993
2 57402  97.3878  86.3410 0009429 337.3340  22.7475 15.15233282 28594
FENGYUN 3F              
1 57490U 23111A   24025.11492283  .00000181  00000+0  10640-3 0  9999
2 57490  98.7886  95.4736 0001721 117.5706 242.5645 14.19759204 24821
TIANMU-1 11             
1 58645U 23205A   24025.15192896  .00006810  00000+0  37883-3 0  9990
2 58645  97.4187  53.9624 0011916 162.9441 197.2194 15.13917293  4716
TIANMU-1 12             
1 58646U 23205B   24025.15571818  .00007148  00000+0  40012-3 0  9999
2 58646  97.4172  53.9515 0010796 159.0782 201.0893 15.13687104  4704
TIANMU-1 13             
1 58647U 23205C   24025.09777489  .00006817  00000+0  38691-3 0  9997
2 58647  97.4200  53.8889 0011194 152.8447 207.3371 15.13203623  4690
TIANMU-1 14             
1 58648U 23205D   24025.15650429  .00007029  00000+0  39410-3 0  9995
2 58648  97.4127  53.9317 0011483 156.7050 203.4704 15.13628023  4704
TIANMU-1 19             
1 58660U 23208A   24025.15250689  .00007965  00000+0  45105-3 0  9993
2 58660  97.4000 141.4825 0012071 142.9562 217.2506 15.13224312  4373
TIANMU-1 20             
1 58661U 23208B   24025.14414089  .00008354  00000+0  46081-3 0  9996
2 58661  97.3924 141.4635 0011608 154.6732 205.5071 15.14154955  4374
TIANMU-1 21             
1 58662U 23208C   24025.14166450  .00008936  00000+0  48950-3 0  9996
2 58662  97.3970 141.4844 0010646 155.1366 205.0381 15.14389025  4375
TIANMU-1 22             
1 58663U 23208D   24025.13555133  .00008767  00000+0  47608-3 0  9997
2 58663  97.3986 141.4979 0011055 163.6042 196.5549 15.14700945  4370
